STARLINK-36207          
1 67014U 25293M   25364.25002315 -.01596033  00000+0 -22623-1 0  9991
2 67014  69.9996 273.5383 0003454 276.5068 195.3140 15.59501175  2979
STARLINK-36093          
1 67015U 25293N   25364.25002315 -.01577280  00000+0 -22361-1 0  9994
2 67015  69.9996 273.5335 0003563 274.9442 200.9567 15.59456011  2914
STARLINK-36120          
1 67016U 25293P   25364.25002315 -.01571957  00000+0 -22259-1 0  9996
2 67016  69.9994 273.5359 0003563 276.5422 197.2904 15.59476076  2911
STARLINK-35498          
1 67017U 25293Q   25364.25002315 -.01590742  00000+0 -22584-1 0  9991
2 67017  69.9995 273.5310 0003566 275.1001 202.8308 15.59447379  3119
STARLINK-36106          
1 67018U 25293R   25364.25002315 -.01577008  00000+0 -22385-1 0  9991
2 67018  69.9993 273.5284 0003600 275.4784 204.4918 15.59422130  3032
STARLINK-35688          
1 67019U 25293S   25364.25002315 -.01581821  00000+0 -22472-1 0  9997
2 67019  69.9995 273.5260 0003521 275.3886 206.5862 15.59411845  3114
STARLINK-36172          
1 67020U 25293T   25364.25002315 -.01579343  00000+0 -22458-1 0  9999
2 67020  69.9996 273.5234 0003535 276.7679 207.3251 15.59381775  3038
STARLINK-36184          
1 67021U 25293U   25364.25002315 -.01576076  00000+0 -22427-1 0  9996
2 67021  69.9996 273.5209 0003511 275.3911 210.7730 15.59356915  3037
STARLINK-36209          
1 67022U 25293V   25364.25002315 -.01580397  00000+0 -22525-1 0  9997
2 67022  69.9998 273.5184 0003504 274.7945 213.5219 15.59324165  3039
STARLINK-36191          
1 67023U 25293W   25364.25002315 -.01586741  00000+0 -22640-1 0  9995
2 67023  69.9997 273.5159 0003539 274.1078 216.2557 15.59308326  2923
STARLINK-36192          
1 67024U 25293X   25364.25002315 -.01587930  00000+0 -22684-1 0  9995
2 67024  69.9997 273.5133 0003491 273.8294 218.6439 15.59279948  3034
STARLINK-36178          
1 67025U 25293Y   25364.25002315 -.01586239  00000+0 -22669-1 0  9990
2 67025  69.9997 273.5108 0003485 274.0664 220.4152 15.59266638  3039
