CCSDS_OMM_VERS = 2.0
CREATION_DATE  = 
ORIGINATOR     = 

OBJECT_NAME    = STARLINK-36207
OBJECT_ID      = 2025-293M
CENTER_NAME    = EARTH
REF_FRAME      = TEME
TIME_SYSTEM    = UTC
MEAN_ELEMENT_THEORY = SGP/SGP4

EPOCH          = 2025-12-30T06:00:02.000160
MEAN_MOTION    = 15.59501175
ECCENTRICITY   = .0003454
INCLINATION    = 69.9996
RA_OF_ASC_NODE = 273.5383
ARG_OF_PERICENTER = 276.5068
MEAN_ANOMALY   = 195.3140

EPHEMERIS_TYPE = 0
CLASSIFICATION_TYPE = U
NORAD_CAT_ID   = 67014
ELEMENT_SET_NO = 999
REV_AT_EPOCH   = 297
BSTAR          = -.22623009E-1
MEAN_MOTION_DOT = -.1596033E-1
MEAN_MOTION_DDOT = 0

CCSDS_OMM_VERS = 2.0
CREATION_DATE  = 
ORIGINATOR     = 

OBJECT_NAME    = STARLINK-36093
OBJECT_ID      = 2025-293N
CENTER_NAME    = EARTH
REF_FRAME      = TEME
TIME_SYSTEM    = UTC
MEAN_ELEMENT_THEORY = SGP/SGP4

EPOCH          = 2025-12-30T06:00:02.000160
MEAN_MOTION    = 15.59456011
ECCENTRICITY   = .00035639
INCLINATION    = 69.9996
RA_OF_ASC_NODE = 273.5335
ARG_OF_PERICENTER = 274.9442
MEAN_ANOMALY   = 200.9567

EPHEMERIS_TYPE = 0
CLASSIFICATION_TYPE = U
NORAD_CAT_ID   = 67015
ELEMENT_SET_NO = 999
REV_AT_EPOCH   = 291
BSTAR          = -.22361003E-1
MEAN_MOTION_DOT = -.157728E-1
MEAN_MOTION_DDOT = 0

CCSDS_OMM_VERS = 2.0
CREATION_DATE  = 
ORIGINATOR     = 

OBJECT_NAME    = STARLINK-36120
OBJECT_ID      = 2025-293P
CENTER_NAME    = EARTH
REF_FRAME      = TEME
TIME_SYSTEM    = UTC
MEAN_ELEMENT_THEORY = SGP/SGP4

EPOCH          = 2025-12-30T06:00:02.000160
MEAN_MOTION    = 15.59476076
ECCENTRICITY   = .00035639
INCLINATION    = 69.9994
RA_OF_ASC_NODE = 273.5359
ARG_OF_PERICENTER = 276.5422
MEAN_ANOMALY   = 197.2904

EPHEMERIS_TYPE = 0
CLASSIFICATION_TYPE = U
NORAD_CAT_ID   = 67016
ELEMENT_SET_NO = 999
REV_AT_EPOCH   = 291
BSTAR          = -.22258948E-1
MEAN_MOTION_DOT = -.1571957E-1
MEAN_MOTION_DDOT = 0

CCSDS_OMM_VERS = 2.0
CREATION_DATE  = 
ORIGINATOR     = 

OBJECT_NAME    = STARLINK-35498
OBJECT_ID      = 2025-293Q
CENTER_NAME    = EARTH
REF_FRAME      = TEME
TIME_SYSTEM    = UTC
MEAN_ELEMENT_THEORY = SGP/SGP4

EPOCH          = 2025-12-30T06:00:02.000160
MEAN_MOTION    = 15.59447379
ECCENTRICITY   = .00035661
INCLINATION    = 69.9995
RA_OF_ASC_NODE = 273.5310
ARG_OF_PERICENTER = 275.1001
MEAN_ANOMALY   = 202.8308

EPHEMERIS_TYPE = 0
CLASSIFICATION_TYPE = U
NORAD_CAT_ID   = 67017
ELEMENT_SET_NO = 999
REV_AT_EPOCH   = 311
BSTAR          = -.22583649E-1
MEAN_MOTION_DOT = -.1590742E-1
MEAN_MOTION_DDOT = 0

CCSDS_OMM_VERS = 2.0
CREATION_DATE  = 
ORIGINATOR     = 

OBJECT_NAME    = STARLINK-36106
OBJECT_ID      = 2025-293R
CENTER_NAME    = EARTH
REF_FRAME      = TEME
TIME_SYSTEM    = UTC
MEAN_ELEMENT_THEORY = SGP/SGP4

EPOCH          = 2025-12-30T06:00:02.000160
MEAN_MOTION    = 15.59422130
ECCENTRICITY   = .00036002
INCLINATION    = 69.9993
RA_OF_ASC_NODE = 273.5284
ARG_OF_PERICENTER = 275.4784
MEAN_ANOMALY   = 204.4918

EPHEMERIS_TYPE = 0
CLASSIFICATION_TYPE = U
NORAD_CAT_ID   = 67018
ELEMENT_SET_NO = 999
REV_AT_EPOCH   = 303
BSTAR          = -.22385266E-1
MEAN_MOTION_DOT = -.1577008E-1
MEAN_MOTION_DDOT = 0

CCSDS_OMM_VERS = 2.0
CREATION_DATE  = 
ORIGINATOR     = 

OBJECT_NAME    = STARLINK-35688
OBJECT_ID      = 2025-293S
CENTER_NAME    = EARTH
REF_FRAME      = TEME
TIME_SYSTEM    = UTC
MEAN_ELEMENT_THEORY = SGP/SGP4

EPOCH          = 2025-12-30T06:00:02.000160
MEAN_MOTION    = 15.59411845
ECCENTRICITY   = .00035217
INCLINATION    = 69.9995
RA_OF_ASC_NODE = 273.5260
ARG_OF_PERICENTER = 275.3886
MEAN_ANOMALY   = 206.5862

EPHEMERIS_TYPE = 0
CLASSIFICATION_TYPE = U
NORAD_CAT_ID   = 67019
ELEMENT_SET_NO = 999
REV_AT_EPOCH   = 311
BSTAR          = -.22471965E-1
MEAN_MOTION_DOT = -.1581821E-1
MEAN_MOTION_DDOT = 0

CCSDS_OMM_VERS = 2.0
CREATION_DATE  = 
ORIGINATOR     = 

OBJECT_NAME    = STARLINK-36172
OBJECT_ID      = 2025-293T
CENTER_NAME    = EARTH
REF_FRAME      = TEME
TIME_SYSTEM    = UTC
MEAN_ELEMENT_THEORY = SGP/SGP4

EPOCH          = 2025-12-30T06:00:02.000160
MEAN_MOTION    = 15.59381775
ECCENTRICITY   = .00035351
INCLINATION    = 69.9996
RA_OF_ASC_NODE = 273.5234
ARG_OF_PERICENTER = 276.7679
MEAN_ANOMALY   = 207.3251

EPHEMERIS_TYPE = 0
CLASSIFICATION_TYPE = U
NORAD_CAT_ID   = 67020
ELEMENT_SET_NO = 999
REV_AT_EPOCH   = 303
BSTAR          = -.22457976E-1
MEAN_MOTION_DOT = -.1579343E-1
MEAN_MOTION_DDOT = 0

CCSDS_OMM_VERS = 2.0
CREATION_DATE  = 
ORIGINATOR     = 

OBJECT_NAME    = STARLINK-36184
OBJECT_ID      = 2025-293U
CENTER_NAME    = EARTH
REF_FRAME      = TEME
TIME_SYSTEM    = UTC
MEAN_ELEMENT_THEORY = SGP/SGP4

EPOCH          = 2025-12-30T06:00:02.000160
MEAN_MOTION    = 15.59356915
ECCENTRICITY   = .00035116
INCLINATION    = 69.9996
RA_OF_ASC_NODE = 273.5209
ARG_OF_PERICENTER = 275.3911
MEAN_ANOMALY   = 210.7730

EPHEMERIS_TYPE = 0
CLASSIFICATION_TYPE = U
NORAD_CAT_ID   = 67021
ELEMENT_SET_NO = 999
REV_AT_EPOCH   = 303
BSTAR          = -.22427233E-1
MEAN_MOTION_DOT = -.1576076E-1
MEAN_MOTION_DDOT = 0

CCSDS_OMM_VERS = 2.0
CREATION_DATE  = 
ORIGINATOR     = 

OBJECT_NAME    = STARLINK-36209
OBJECT_ID      = 2025-293V
CENTER_NAME    = EARTH
REF_FRAME      = TEME
TIME_SYSTEM    = UTC
MEAN_ELEMENT_THEORY = SGP/SGP4

EPOCH          = 2025-12-30T06:00:02.000160
MEAN_MOTION    = 15.59324165
ECCENTRICITY   = .00035042
INCLINATION    = 69.9998
RA_OF_ASC_NODE = 273.5184
ARG_OF_PERICENTER = 274.7945
MEAN_ANOMALY   = 213.5219

EPHEMERIS_TYPE = 0
CLASSIFICATION_TYPE = U
NORAD_CAT_ID   = 67022
ELEMENT_SET_NO = 999
REV_AT_EPOCH   = 303
BSTAR          = -.22524792E-1
MEAN_MOTION_DOT = -.1580397E-1
MEAN_MOTION_DDOT = 0

CCSDS_OMM_VERS = 2.0
CREATION_DATE  = 
ORIGINATOR     = 

OBJECT_NAME    = STARLINK-36191
OBJECT_ID      = 2025-293W
CENTER_NAME    = EARTH
REF_FRAME      = TEME
TIME_SYSTEM    = UTC
MEAN_ELEMENT_THEORY = SGP/SGP4

EPOCH          = 2025-12-30T06:00:02.000160
MEAN_MOTION    = 15.59308326
ECCENTRICITY   = .00035395
INCLINATION    = 69.9997
RA_OF_ASC_NODE = 273.5159
ARG_OF_PERICENTER = 274.1078
MEAN_ANOMALY   = 216.2557

EPHEMERIS_TYPE = 0
CLASSIFICATION_TYPE = U
NORAD_CAT_ID   = 67023
ELEMENT_SET_NO = 999
REV_AT_EPOCH   = 292
BSTAR          = -.22640028E-1
MEAN_MOTION_DOT = -.1586741E-1
MEAN_MOTION_DDOT = 0

CCSDS_OMM_VERS = 2.0
CREATION_DATE  = 
ORIGINATOR     = 

OBJECT_NAME    = STARLINK-36192
OBJECT_ID      = 2025-293X
CENTER_NAME    = EARTH
REF_FRAME      = TEME
TIME_SYSTEM    = UTC
MEAN_ELEMENT_THEORY = SGP/SGP4

EPOCH          = 2025-12-30T06:00:02.000160
MEAN_MOTION    = 15.59279948
ECCENTRICITY   = .00034917
INCLINATION    = 69.9997
RA_OF_ASC_NODE = 273.5133
ARG_OF_PERICENTER = 273.8294
MEAN_ANOMALY   = 218.6439

EPHEMERIS_TYPE = 0
CLASSIFICATION_TYPE = U
NORAD_CAT_ID   = 67024
ELEMENT_SET_NO = 999
REV_AT_EPOCH   = 303
BSTAR          = -.22684292E-1
MEAN_MOTION_DOT = -.158793E-1
MEAN_MOTION_DDOT = 0

CCSDS_OMM_VERS = 2.0
CREATION_DATE  = 
ORIGINATOR     = 

OBJECT_NAME    = STARLINK-36178
OBJECT_ID      = 2025-293Y
CENTER_NAME    = EARTH
REF_FRAME      = TEME
TIME_SYSTEM    = UTC
MEAN_ELEMENT_THEORY = SGP/SGP4

EPOCH          = 2025-12-30T06:00:02.000160
MEAN_MOTION    = 15.59266638
ECCENTRICITY   = .00034851
INCLINATION    = 69.9997
RA_OF_ASC_NODE = 273.5108
ARG_OF_PERICENTER = 274.0664
MEAN_ANOMALY   = 220.4152

EPHEMERIS_TYPE = 0
CLASSIFICATION_TYPE = U
NORAD_CAT_ID   = 67025
ELEMENT_SET_NO = 999
REV_AT_EPOCH   = 303
BSTAR          = -.22668664E-1
MEAN_MOTION_DOT = -.1586239E-1
MEAN_MOTION_DDOT = 0

